LANDSAT 9               
1 49260U 21088A   23208.26537151  .00000551  00000+0  13249-3 0  9997
2 49260  98.2281 277.6738 0001180 106.4472 253.6856 14.57092160 97227
